{"type": "FeatureCollection", "features": [ {"type": "Feature", "properties": {"norad_id": 36995, "name": "FENGYUN 1C DEB", "group": "fengyun-1c-debris", "lat": -23.235705153306185, "lon": -122.47220492482546, "alt_km": 865.2670793298839, "timestamp": "2025-12-21T22:41:41.748802+00:00", "meta": {"OBJECT_NAME": "FENGYUN 1C DEB", "OBJECT_ID": "1999-025ECB", "EPOCH": "2025-12-21T10:50:27.809664", "MEAN_MOTION": 14.04870407, "ECCENTRICITY": 0.00383848, "INCLINATION": 98.3428, "RA_OF_ASC_NODE": 233.4615, "ARG_OF_PERICENTER": 285.703, "MEAN_ANOMALY": 73.9907, "EPHEMERIS_TYPE": 0, "CLASSIFICATION_TYPE": "U", "NORAD_CAT_ID": 36995, "ELEMENT_SET_NO": 999, "REV_AT_EPOCH": 63679, "BSTAR": 0.0002276039, "MEAN_MOTION_DOT": 3.29e-06, "MEAN_MOTION_DDOT": 0}, "tle": {"line1": "1 36995U 99025ECB 25355.45171076  .00000329  00000+0  22760-3 0  9991", "line2": "2 36995  98.3428 233.4615 0038384 285.7030  73.9907 14.04870407636794"}}, "geometry": {"type": "Point", "coordinates": [-122.47220492482546, -23.235705153306185]}}, {"type": "Feature", "properties": {"norad_id": 36996, "name": "FENGYUN 1C DEB", "group": "fengyun-1c-debris", "lat": -53.982744370749316, "lon": 158.90741420237057, "alt_km": 685.2602951862864, "timestamp": "2025-12-21T22:41:41.748812+00:00", "meta": {"OBJECT_NAME": "FENGYUN 1C DEB", "OBJECT_ID": "1999-025ECC", "EPOCH": "2025-12-19T06:51:36.156096", "MEAN_MOTION": 14.11557729, "ECCENTRICITY": 0.0254059, "INCLINATION": 98.2257, "RA_OF_ASC_NODE": 144.9888, "ARG_OF_PERICENTER": 330.3469, "MEAN_ANOMALY": 147.4127, "EPHEMERIS_TYPE": 0, "CLASSIFICATION_TYPE": "U", "NORAD_CAT_ID": 36996, "ELEMENT_SET_NO": 999, "REV_AT_EPOCH": 59784, "BSTAR": 0.00056112, "MEAN_MOTION_DOT": 1.337e-05, "MEAN_MOTION_DDOT": 0}, "tle": {"line1": "1 36996U 99025ECC 25353.28583514  .00001337  00000+0  56112-3 0  9993", "line2": "2 36996  98.2257 144.9888 0254059 330.3469 147.4127 14.11557729597844"}}, "geometry": {"type": "Point", "coordinates": [158.90741420237057, -53.982744370749316]}}, {"type": "Feature", "properties": {"norad_id": 37003, "name": "FENGYUN 1C DEB", "group": "fengyun-1c-debris", "lat": -31.78980630741905, "lon": -166.32901626753093, "alt_km": 893.9085298553191, "timestamp": "2025-12-21T22:41:41.748823+00:00", "meta": {"OBJECT_NAME": "FENGYUN 1C DEB", "OBJECT_ID": "1999-025ECK", "EPOCH": "2025-12-18T07:48:02.434752", "MEAN_MOTION": 13.96231437, "ECCENTRICITY": 0.00968579, "INCLINATION": 98.8458, "RA_OF_ASC_NODE": 15.7304, "ARG_OF_PERICENTER": 147.1253, "MEAN_ANOMALY": 235.2095, "EPHEMERIS_TYPE": 0, "CLASSIFICATION_TYPE": "U", "NORAD_CAT_ID": 37003, "ELEMENT_SET_NO": 999, "REV_AT_EPOCH": 60735, "BSTAR": 0.00036300048, "MEAN_MOTION_DOT": 4.78e-06, "MEAN_MOTION_DDOT": 0}, "tle": {"line1": "1 37003U 99025ECK 25352.32502818  .00000478  00000+0  36300-3 0  9997", "line2": "2 37003  98.8458  15.7304 0096857 147.1253 235.2095 13.96231437607351"}}, "geometry": {"type": "Point", "coordinates": [-166.32901626753093, -31.78980630741905]}}, {"type": "Feature", "properties": {"norad_id": 37006, "name": "FENGYUN 1C DEB", "group": "fengyun-1c-debris", "lat": 63.96334816127567, "lon": 85.04747278624347, "alt_km": 769.3494326279069, "timestamp": "2025-12-21T22:41:41.748833+00:00", "meta": {"OBJECT_NAME": "FENGYUN 1C DEB", "OBJECT_ID": "1999-025ECN", "EPOCH": "2025-12-21T12:12:10.675296", "MEAN_MOTION": 14.48956775, "ECCENTRICITY": 0.02551672, "INCLINATION": 99.2983, "RA_OF_ASC_NODE": 244.9711, "ARG_OF_PERICENTER": 221.9698, "MEAN_ANOMALY": 136.169, "EPHEMERIS_TYPE": 0, "CLASSIFICATION_TYPE": "U", "NORAD_CAT_ID": 37006, "ELEMENT_SET_NO": 999, "REV_AT_EPOCH": 65241, "BSTAR": 0.00048410661, "MEAN_MOTION_DOT": 2.709e-05, "MEAN_MOTION_DDOT": 0}, "tle": {"line1": "1 37006U 99025ECN 25355.50845689  .00002709  00000+0  48411-3 0  9994", "line2": "2 37006  99.2983 244.9711 0255167 221.9698 136.1690 14.48956775652419"}}, "geometry": {"type": "Point", "coordinates": [85.04747278624347, 63.96334816127567]}}, {"type": "Feature", "properties": {"norad_id": 37008, "name": "FENGYUN 1C DEB", "group": "fengyun-1c-debris", "lat": -61.39287803392781, "lon": -82.25343117834103, "alt_km": 829.5131638823477, "timestamp": "2025-12-21T22:41:41.748843+00:00", "meta": {"OBJECT_NAME": "FENGYUN 1C DEB", "OBJECT_ID": "1999-025ECQ", "EPOCH": "2025-12-21T14:43:18.321600", "MEAN_MOTION": 14.07962569, "ECCENTRICITY": 0.00626323, "INCLINATION": 99.1355, "RA_OF_ASC_NODE": 114.5707, "ARG_OF_PERICENTER": 229.1241, "MEAN_ANOMALY": 130.4491, "EPHEMERIS_TYPE": 0, "CLASSIFICATION_TYPE": "U", "NORAD_CAT_ID": 37008, "ELEMENT_SET_NO": 999, "REV_AT_EPOCH": 60439, "BSTAR": 0.0010325862, "MEAN_MOTION_DOT": 1.74e-05, "MEAN_MOTION_DDOT": 0}, "tle": {"line1": "1 37008U 99025ECQ 25355.61340650  .00001740  00000+0  10326-2 0  9993", "line2": "2 37008  99.1355 114.5707 0062632 229.1241 130.4491 14.07962569604390"}}, "geometry": {"type": "Point", "coordinates": [-82.25343117834103, -61.39287803392781]}}, {"type": "Feature", "properties": {"norad_id": 37017, "name": "FENGYUN 1C DEB", "group": "fengyun-1c-debris", "lat": -29.86417828366348, "lon": 115.62793597534674, "alt_km": 881.487527742669, "timestamp": "2025-12-21T22:41:41.748853+00:00", "meta": {"OBJECT_NAME": "FENGYUN 1C DEB", "OBJECT_ID": "1999-025ECZ", "EPOCH": "2025-12-20T02:22:22.724832", "MEAN_MOTION": 14.40809486, "ECCENTRICITY": 0.02814738, "INCLINATION": 98.7945, "RA_OF_ASC_NODE": 298.8266, "ARG_OF_PERICENTER": 343.5705, "MEAN_ANOMALY": 15.6497, "EPHEMERIS_TYPE": 0, "CLASSIFICATION_TYPE": "U", "NORAD_CAT_ID": 37017, "ELEMENT_SET_NO": 999, "REV_AT_EPOCH": 61267, "BSTAR": 0.00129315, "MEAN_MOTION_DOT": 6.585e-05, "MEAN_MOTION_DDOT": 0}, "tle": {"line1": "1 37017U 99025ECZ 25354.09887413  .00006585  00000+0  12932-2 0  9994", "line2": "2 37017  98.7945 298.8266 0281473 343.5705  15.6497 14.40809486612673"}}, "geometry": {"type": "Point", "coordinates": [115.62793597534674, -29.86417828366348]}}, {"type": "Feature", "properties": {"norad_id": 37021, "name": "FENGYUN 1C DEB", "group": "fengyun-1c-debris", "lat": 34.95231437096511, "lon": 6.403050845765754, "alt_km": 906.1211943535181, "timestamp": "2025-12-21T22:41:41.748863+00:00", "meta": {"OBJECT_NAME": "FENGYUN 1C DEB", "OBJECT_ID": "1999-025EDD", "EPOCH": "2025-12-18T21:19:54.256224", "MEAN_MOTION": 14.32297815, "ECCENTRICITY": 0.01759429, "INCLINATION": 98.385, "RA_OF_ASC_NODE": 9.3631, "ARG_OF_PERICENTER": 233.4704, "MEAN_ANOMALY": 249.0172, "EPHEMERIS_TYPE": 0, "CLASSIFICATION_TYPE": "U", "NORAD_CAT_ID": 37021, "ELEMENT_SET_NO": 999, "REV_AT_EPOCH": 70142, "BSTAR": 0.0005092002, "MEAN_MOTION_DOT": 1.583e-05, "MEAN_MOTION_DDOT": 0}, "tle": {"line1": "1 37021U 99025EDD 25352.88882241  .00001583  00000+0  50920-3 0  9991", "line2": "2 37021  98.3850   9.3631 0175942 233.4704 249.0172 14.32297815701422"}}, "geometry": {"type": "Point", "coordinates": [6.403050845765754, 34.95231437096511]}}, {"type": "Feature", "properties": {"norad_id": 37028, "name": "FENGYUN 1C DEB", "group": "fengyun-1c-debris", "lat": 80.70799588596748, "lon": 179.4568157408626, "alt_km": 785.1824899612311, "timestamp": "2025-12-21T22:41:41.748873+00:00", "meta": {"OBJECT_NAME": "FENGYUN 1C DEB", "OBJECT_ID": "1999-025EDL", "EPOCH": "2025-12-18T11:34:45.442560", "MEAN_MOTION": 14.22776654, "ECCENTRICITY": 0.00337702, "INCLINATION": 99.2466, "RA_OF_ASC_NODE": 260.4859, "ARG_OF_PERICENTER": 82.1635, "MEAN_ANOMALY": 278.3373, "EPHEMERIS_TYPE": 0, "CLASSIFICATION_TYPE": "U", "NORAD_CAT_ID": 37028, "ELEMENT_SET_NO": 999, "REV_AT_EPOCH": 60557, "BSTAR": 0.0014134336, "MEAN_MOTION_DOT": 3.141e-05, "MEAN_MOTION_DDOT": 0}, "tle": {"line1": "1 37028U 99025EDL 25352.48247040  .00003141  00000+0  14134-2 0  9994", "line2": "2 37028  99.2466 260.4859 0033770  82.1635 278.3373 14.22776654605577"}}, "geometry": {"type": "Point", "coordinates": [179.4568157408626, 80.70799588596748]}}, {"type": "Feature", "properties": {"norad_id": 37036, "name": "FENGYUN 1C DEB", "group": "fengyun-1c-debris", "lat": -66.03218826777298, "lon": 8.477178654267732, "alt_km": 898.5373322204678, "timestamp": "2025-12-21T22:41:41.748883+00:00", "meta": {"OBJECT_NAME": "FENGYUN 1C DEB", "OBJECT_ID": "1999-025EDU", "EPOCH": "2025-12-16T06:08:42.790848", "MEAN_MOTION": 14.03573579, "ECCENTRICITY": 0.01241319, "INCLINATION": 98.7147, "RA_OF_ASC_NODE": 342.8405, "ARG_OF_PERICENTER": 45.4254, "MEAN_ANOMALY": 315.6966, "EPHEMERIS_TYPE": 0, "CLASSIFICATION_TYPE": "U", "NORAD_CAT_ID": 37036, "ELEMENT_SET_NO": 999, "REV_AT_EPOCH": 63797, "BSTAR": 0.00035913952, "MEAN_MOTION_DOT": 5.62e-06, "MEAN_MOTION_DDOT": 0}, "tle": {"line1": "1 37036U 99025EDU 25350.25605082  .00000562  00000+0  35914-3 0  9994", "line2": "2 37036  98.7147 342.8405 0124131  45.4254 315.6966 14.03573579637971"}}, "geometry": {"type": "Point", "coordinates": [8.477178654267732, -66.03218826777298]}}, {"type": "Feature", "properties": {"norad_id": 37044, "name": "FENGYUN 1C DEB", "group": "fengyun-1c-debris", "lat": 69.00368337460417, "lon": 77.17905910035317, "alt_km": 821.727295334661, "timestamp": "2025-12-21T22:41:41.748894+00:00", "meta": {"OBJECT_NAME": "FENGYUN 1C DEB", "OBJECT_ID": "1999-025EEC", "EPOCH": "2025-12-17T00:58:56.109216", "MEAN_MOTION": 13.7088459, "ECCENTRICITY": 0.05081309, "INCLINATION": 98.9658, "RA_OF_ASC_NODE": 96.8685, "ARG_OF_PERICENTER": 149.9849, "MEAN_ANOMALY": 213.1489, "EPHEMERIS_TYPE": 0, "CLASSIFICATION_TYPE": "U", "NORAD_CAT_ID": 37044, "ELEMENT_SET_NO": 999, "REV_AT_EPOCH": 83917, "BSTAR": 0.0024723878, "MEAN_MOTION_DOT": 5.519e-05, "MEAN_MOTION_DDOT": 0}, "tle": {"line1": "1 37044U 99025EEC 25351.04092719  .00005519  00000+0  24724-2 0  9991", "line2": "2 37044  98.9658  96.8685 0508130 149.9849 213.1489 13.70884590839179"}}, "geometry": {"type": "Point", "coordinates": [77.17905910035317, 69.00368337460417]}}]}